start=new Date('2021-12-04T00:00:00.000Z').valueOf();
sats=[{"MEAN_ANOMALY":"262.0666","NORAD_CAT_ID":"46363","SITE":"AFETR","OBJECT_ID":"2020-062AQ","CENTER_NAME":"EARTH","ELEMENT_SET_NO":"999","TLE_LINE1":"1 46363U 20062AQ  21337.54257380 -.00000375  00000-0 -62406-5 0  9992","REV_AT_EPOCH":"7024","DECAY_DATE":null,"EPOCH":"2021-12-03T13:01:18.376320","RA_OF_ASC_NODE":"121.9199","ARG_OF_PERICENTER":"98.0510","BSTAR":"-0.00000624060000","FILE":"3231740","PERIAPSIS":"546.059","LAUNCH_DATE":"2020-09-03","MEAN_MOTION_DOT":"-0.00000375","RCS_SIZE":"LARGE","APOAPSIS":"548.347","CLASSIFICATION_TYPE":"U","MEAN_MOTION":"15.06403410","ECCENTRICITY":"0.00016520","TIME_SYSTEM":"UTC","PERIOD":"95.592","MEAN_ELEMENT_THEORY":"SGP4","GP_ID":"191010682","TLE_LINE2":"2 46363  53.0534 121.9199 0001652  98.0510 262.0666 15.06403410 70248","COUNTRY_CODE":"US","EPHEMERIS_TYPE":"0","OBJECT_NAME":"STARLINK-1739","INCLINATION":"53.0534","OBJECT_TYPE":"PAYLOAD","SEMIMAJOR_AXIS":"6925.338","REF_FRAME":"TEME","MEAN_MOTION_DDOT":"0.0000000000000"},{"BSTAR":"-0.00000514070000","FILE":"3231740","RCS_SIZE":"LARGE","LAUNCH_DATE":"2020-09-03","PERIAPSIS":"544.631","MEAN_MOTION_DOT":"-0.00000359","APOAPSIS":"549.815","CLASSIFICATION_TYPE":"U","MEAN_MOTION":"15.06397004","ECCENTRICITY":"0.00037430","SITE":"AFETR","NORAD_CAT_ID":"46364","MEAN_ANOMALY":"176.9967","OBJECT_ID":"2020-062AR","CENTER_NAME":"EARTH","ELEMENT_SET_NO":"999","TLE_LINE1":"1 46364U 20062AR  21337.49280502 -.00000359  00000-0 -51407-5 0  9990","DECAY_DATE":null,"REV_AT_EPOCH":"7051","ARG_OF_PERICENTER":"183.1000","RA_OF_ASC_NODE":"102.1579","EPOCH":"2021-12-03T11:49:38.353728","OBJECT_TYPE":"PAYLOAD","INCLINATION":"53.0544","SEMIMAJOR_AXIS":"6925.358","REF_FRAME":"TEME","MEAN_MOTION_DDOT":"0.0000000000000","PERIOD":"95.592","TIME_SYSTEM":"UTC","MEAN_ELEMENT_THEORY":"SGP4","GP_ID":"191011933","TLE_LINE2":"2 46364  53.0544 102.1579 0003743 183.1000 176.9967 15.06397004 70514","COUNTRY_CODE":"US","OBJECT_NAME":"STARLINK-1763","EPHEMERIS_TYPE":"0"},{"ECCENTRICITY":"0.00018550","MEAN_MOTION":"15.06400147","CLASSIFICATION_TYPE":"U","APOAPSIS":"548.498","LAUNCH_DATE":"2020-09-03","MEAN_MOTION_DOT":"-0.00000647","PERIAPSIS":"545.928","RCS_SIZE":"LARGE","BSTAR":"-0.00002454500000","FILE":"3231740","EPOCH":"2021-12-03T02:56:13.422048","RA_OF_ASC_NODE":"123.8077","ARG_OF_PERICENTER":"88.0436","REV_AT_EPOCH":"7017","DECAY_DATE":null,"TLE_LINE1":"1 46365U 20062AS  21337.12237757 -.00000647  00000-0 -24545-4 0  9997","ELEMENT_SET_NO":"999","CENTER_NAME":"EARTH","OBJECT_ID":"2020-062AS","NORAD_CAT_ID":"46365","MEAN_ANOMALY":"272.0765","SITE":"AFETR","MEAN_MOTION_DDOT":"0.0000000000000","REF_FRAME":"TEME","SEMIMAJOR_AXIS":"6925.348","INCLINATION":"53.0526","OBJECT_TYPE":"PAYLOAD","EPHEMERIS_TYPE":"0","OBJECT_NAME":"STARLINK-1550","COUNTRY_CODE":"US","TLE_LINE2":"2 46365  53.0526 123.8077 0001855  88.0436 272.0765 15.06400147 70175","GP_ID":"191011684","MEAN_ELEMENT_THEORY":"SGP4","TIME_SYSTEM":"UTC","PERIOD":"95.592"},{"COUNTRY_CODE":"US","OBJECT_NAME":"STARLINK-1651","EPHEMERIS_TYPE":"0","GP_ID":"191037886","TLE_LINE2":"2 46366  53.0541 120.5841 0001528  89.0044 271.1120 15.06406552 70282","MEAN_ELEMENT_THEORY":"SGP4","PERIOD":"95.592","TIME_SYSTEM":"UTC","REF_FRAME":"TEME","MEAN_MOTION_DDOT":"0.0000000000000","SEMIMAJOR_AXIS":"6925.328","OBJECT_TYPE":"PAYLOAD","INCLINATION":"53.0541","ARG_OF_PERICENTER":"89.0044","RA_OF_ASC_NODE":"120.5841","EPOCH":"2021-12-03T20:11:13.593120","TLE_LINE1":"1 46366U 20062AT  21337.84112955  .00000280  00000-0  37708-4 0  9995","DECAY_DATE":null,"REV_AT_EPOCH":"7028","CENTER_NAME":"EARTH","ELEMENT_SET_NO":"999","SITE":"AFETR","NORAD_CAT_ID":"46366","MEAN_ANOMALY":"271.1120","OBJECT_ID":"2020-062AT","ECCENTRICITY":"0.00015280","MEAN_MOTION":"15.06406552","RCS_SIZE":"LARGE","PERIAPSIS":"546.135","LAUNCH_DATE":"2020-09-03","MEAN_MOTION_DOT":"0.00000280","CLASSIFICATION_TYPE":"U","APOAPSIS":"548.252","FILE":"3231910","BSTAR":"0.00003770800000"},{"OBJECT_TYPE":"PAYLOAD","INCLINATION":"53.0550","SEMIMAJOR_AXIS":"6925.342","MEAN_MOTION_DDOT":"0.0000000000000","REF_FRAME":"TEME","PERIOD":"95.592","TIME_SYSTEM":"UTC","MEAN_ELEMENT_THEORY":"SGP4","TLE_LINE2":"2 46368  53.0550 145.5968 0002067  86.6742 273.4483 15.06402292 69943","GP_ID":"191039137","EPHEMERIS_TYPE":"0","OBJECT_NAME":"STARLINK-1658","COUNTRY_CODE":"US","FILE":"3231910","BSTAR":"0.00010404000000","CLASSIFICATION_TYPE":"U","APOAPSIS":"548.638","PERIAPSIS":"545.775","LAUNCH_DATE":"2020-09-03","MEAN_MOTION_DOT":"0.00001268","RCS_SIZE":"LARGE","MEAN_MOTION":"15.06402292","ECCENTRICITY":"0.00020670","OBJECT_ID":"2020-062AV","MEAN_ANOMALY":"273.4483","NORAD_CAT_ID":"46368","SITE":"AFETR","ELEMENT_SET_NO":"999","CENTER_NAME":"EARTH","REV_AT_EPOCH":"6994","DECAY_DATE":null,"TLE_LINE1":"1 46368U 20062AV  21337.84068898  .00001268  00000-0  10404-3 0  9993","RA_OF_ASC_NODE":"145.5968","EPOCH":"2021-12-03T20:10:35.527872","ARG_OF_PERICENTER":"86.6742"},{"INCLINATION":"53.0546","OBJECT_TYPE":"PAYLOAD","SEMIMAJOR_AXIS":"6925.356","REF_FRAME":"TEME","MEAN_MOTION_DDOT":"0.0000000000000","TIME_SYSTEM":"UTC","PERIOD":"95.592","MEAN_ELEMENT_THEORY":"SGP4","GP_ID":"191011434","TLE_LINE2":"2 46370  53.0546 147.2500 0001886  85.3907 274.7297 15.06397432 69888","COUNTRY_CODE":"US","EPHEMERIS_TYPE":"0","OBJECT_NAME":"STARLINK-1670","BSTAR":"0.00008681100000","FILE":"3231740","MEAN_MOTION_DOT":"0.00001012","LAUNCH_DATE":"2020-09-03","PERIAPSIS":"545.915","RCS_SIZE":"LARGE","APOAPSIS":"548.528","CLASSIFICATION_TYPE":"U","MEAN_MOTION":"15.06397432","ECCENTRICITY":"0.00018860","NORAD_CAT_ID":"46370","MEAN_ANOMALY":"274.7297","SITE":"AFETR","OBJECT_ID":"2020-062AX","CENTER_NAME":"EARTH","ELEMENT_SET_NO":"999","TLE_LINE1":"1 46370U 20062AX  21337.47209935  .00001012  00000-0  86811-4 0  9997","REV_AT_EPOCH":"6988","DECAY_DATE":null,"EPOCH":"2021-12-03T11:19:49.383840","RA_OF_ASC_NODE":"147.2500","ARG_OF_PERICENTER":"85.3907"},{"OBJECT_TYPE":"PAYLOAD","INCLINATION":"53.0527","SEMIMAJOR_AXIS":"6925.367","MEAN_MOTION_DDOT":"0.0000000000000","REF_FRAME":"TEME","PERIOD":"95.593","TIME_SYSTEM":"UTC","MEAN_ELEMENT_THEORY":"SGP4","TLE_LINE2":"2 46371  53.0527 146.6831 0002470  88.5003 271.6268 15.06393983 69904","GP_ID":"191037636","EPHEMERIS_TYPE":"0","OBJECT_NAME":"STARLINK-1688","COUNTRY_CODE":"US","FILE":"3231910","BSTAR":"0.00009427700000","CLASSIFICATION_TYPE":"U","APOAPSIS":"548.943","LAUNCH_DATE":"2020-09-03","MEAN_MOTION_DOT":"0.00001122","PERIAPSIS":"545.521","RCS_SIZE":"LARGE","MEAN_MOTION":"15.06393983","ECCENTRICITY":"0.00024700","OBJECT_ID":"2020-062AY","NORAD_CAT_ID":"46371","MEAN_ANOMALY":"271.6268","SITE":"AFETR","ELEMENT_SET_NO":"999","CENTER_NAME":"EARTH","REV_AT_EPOCH":"6990","DECAY_DATE":null,"TLE_LINE1":"1 46371U 20062AY  21337.59741288  .00001122  00000-0  94277-4 0  9990","RA_OF_ASC_NODE":"146.6831","EPOCH":"2021-12-03T14:20:16.472832","ARG_OF_PERICENTER":"88.5003"},{"CLASSIFICATION_TYPE":"U","APOAPSIS":"548.799","PERIAPSIS":"545.714","LAUNCH_DATE":"2020-09-03","MEAN_MOTION_DOT":"0.00000176","RCS_SIZE":"LARGE","BSTAR":"0.00003077300000","FILE":"3231740","ECCENTRICITY":"0.00022270","MEAN_MOTION":"15.06385968","ELEMENT_SET_NO":"999","CENTER_NAME":"EARTH","OBJECT_ID":"2020-062AZ","NORAD_CAT_ID":"46372","MEAN_ANOMALY":"271.3288","SITE":"AFETR","EPOCH":"2021-12-03T12:58:00.374304","RA_OF_ASC_NODE":"166.9318","ARG_OF_PERICENTER":"88.7956","REV_AT_EPOCH":"6961","DECAY_DATE":null,"TLE_LINE1":"1 46372U 20062AZ  21337.54028211  .00000176  00000-0  30773-4 0  9999","SEMIMAJOR_AXIS":"6925.392","OBJECT_TYPE":"PAYLOAD","INCLINATION":"53.0533","MEAN_MOTION_DDOT":"0.0000000000000","REF_FRAME":"TEME","MEAN_ELEMENT_THEORY":"SGP4","TIME_SYSTEM":"UTC","PERIOD":"95.593","EPHEMERIS_TYPE":"0","OBJECT_NAME":"STARLINK-1689","COUNTRY_CODE":"US","TLE_LINE2":"2 46372  53.0533 166.9318 0002227  88.7956 271.3288 15.06385968 69617","GP_ID":"191010433"},{"OBJECT_NAME":"STARLINK-1711","EPHEMERIS_TYPE":"0","COUNTRY_CODE":"US","TLE_LINE2":"2 46374  53.0553  95.3877 0005691  98.2320 261.9315 15.06392818 70648","GP_ID":"191038638","MEAN_ELEMENT_THEORY":"SGP4","TIME_SYSTEM":"UTC","PERIOD":"95.593","MEAN_MOTION_DDOT":"0.0000000000000","REF_FRAME":"TEME","SEMIMAJOR_AXIS":"6925.371","OBJECT_TYPE":"PAYLOAD","INCLINATION":"53.0553","ARG_OF_PERICENTER":"98.2320","EPOCH":"2021-12-03T21:15:36.117216","RA_OF_ASC_NODE":"95.3877","DECAY_DATE":null,"REV_AT_EPOCH":"7064","TLE_LINE1":"1 46374U 20062BB  21337.88583469  .00000947  00000-0  82564-4 0  9990","ELEMENT_SET_NO":"999","CENTER_NAME":"EARTH","OBJECT_ID":"2020-062BB","SITE":"AFETR","NORAD_CAT_ID":"46374","MEAN_ANOMALY":"261.9315","ECCENTRICITY":"0.00056910","MEAN_MOTION":"15.06392818","APOAPSIS":"551.177","CLASSIFICATION_TYPE":"U","RCS_SIZE":"LARGE","MEAN_MOTION_DOT":"0.00000947","LAUNCH_DATE":"2020-09-03","PERIAPSIS":"543.294","BSTAR":"0.00008256400000","FILE":"3231910"},{"ARG_OF_PERICENTER":"86.6783","EPOCH":"2021-12-03T10:27:22.417632","RA_OF_ASC_NODE":"122.4019","DECAY_DATE":null,"REV_AT_EPOCH":"7022","TLE_LINE1":"1 46375U 20062BC  21337.43567613  .00001277  00000-0  10465-3 0  9992","ELEMENT_SET_NO":"999","CENTER_NAME":"EARTH","OBJECT_ID":"2020-062BC","SITE":"AFETR","NORAD_CAT_ID":"46375","MEAN_ANOMALY":"273.4403","ECCENTRICITY":"0.00017240","MEAN_MOTION":"15.06398999","CLASSIFICATION_TYPE":"U","APOAPSIS":"548.411","RCS_SIZE":"LARGE","LAUNCH_DATE":"2020-09-03","MEAN_MOTION_DOT":"0.00001277","PERIAPSIS":"546.023","FILE":"3231740","BSTAR":"0.00010465000000","OBJECT_NAME":"STARLINK-1724","EPHEMERIS_TYPE":"0","COUNTRY_CODE":"US","TLE_LINE2":"2 46375  53.0536 122.4019 0001724  86.6783 273.4403 15.06398999 70223","GP_ID":"191011934","MEAN_ELEMENT_THEORY":"SGP4","TIME_SYSTEM":"UTC","PERIOD":"95.592","MEAN_MOTION_DDOT":"0.0000000000000","REF_FRAME":"TEME","SEMIMAJOR_AXIS":"6925.352","INCLINATION":"53.0536","OBJECT_TYPE":"PAYLOAD"}];
